$$SOE
2459580.500000000, A.D. 2022-Jan-01 00:00:00.0000, -4.713192213746296E+08, -2.182434471770011E+08, 7.400866247681499E+06,
2459587.500000000, A.D. 2022-Jan-08 00:00:00.0000, -4.664868668870687E+08, -2.259459861614187E+08, 7.120217295471385E+06,
2459594.500000000, A.D. 2022-Jan-15 00:00:00.0000, -4.614919863858224E+08, -2.335697679691646E+08, 6.837087888408676E+06,
2459601.500000000, A.D. 2022-Jan-22 00:00:00.0000, -4.563352913926799E+08, -2.411116178337636E+08, 6.551561137453467E+06,
2459608.500000000, A.D. 2022-Jan-29 00:00:00.0000, -4.510175423320453E+08, -2.485683377966003E+08, 6.263721936711222E+06,
2459615.500000000, A.D. 2022-Feb-05 00:00:00.0000, -4.455395521746606E+08, -2.559367073719532E+08, 5.973657147609815E+06,
2459622.500000000, A.D. 2022-Feb-12 00:00:00.0000, -4.399021879589434E+08, -2.632134853209237E+08, 5.681455498413652E+06,
2459629.500000000, A.D. 2022-Feb-19 00:00:00.0000, -4.341063715158424E+08, -2.703954101675144E+08, 5.387207514117584E+06,
2459636.500000000, A.D. 2022-Feb-26 00:00:00.0000, -4.281530807087647E+08, -2.774792001822216E+08, 5.091005537724301E+06,
2459643.500000000, A.D. 2022-Mar-05 00:00:00.0000, -4.220433510295748E+08, -2.844615534529740E+08, 4.792943777551040E+06,
2459650.500000000, A.D. 2022-Mar-12 00:00:00.0000, -4.157782773294078E+08, -2.913391481121280E+08, 4.493118354488060E+06,
2459657.500000000, A.D. 2022-Mar-19 00:00:00.0000, -4.093590156135535E+08, -2.981086426941497E+08, 4.191627344651401E+06,
2459664.500000000, A.D. 2022-Mar-26 00:00:00.0000, -4.027867848776201E+08, -3.047666766325874E+08, 3.888570814583376E+06,
2459671.500000000, A.D. 2022-Apr-02 00:00:00.0000, -3.960628689163221E+08, -3.113098709554706E+08, 3.584050837894529E+06,
2459678.500000000, A.D. 2022-Apr-09 00:00:00.0000, -3.891886178322125E+08, -3.177348291784774E+08, 3.278171468456343E+06,
2459685.500000000, A.D. 2022-Apr-16 00:00:00.0000, -3.821654488872482E+08, -3.240381377464002E+08, 2.971038690520987E+06,
2459692.500000000, A.D. 2022-Apr-23 00:00:00.0000, -3.749948479662443E+08, -3.302163649430047E+08, 2.662760550488234E+06,
2459699.500000000, A.D. 2022-Apr-30 00:00:00.0000, -3.676783735222233E+08, -3.362660605188847E+08, 2.353447458108291E+06,
2459706.500000000, A.D. 2022-May-07 00:00:00.0000, -3.602176599410367E+08, -3.421837580157847E+08, 2.043212214676753E+06,
2459713.500000000, A.D. 2022-May-14 00:00:00.0000, -3.526144189359062E+08, -3.479659767537573E+08, 1.732169888967082E+06,
2459720.500000000, A.D. 2022-May-21 00:00:00.0000, -3.448704410016896E+08, -3.536092227263522E+08, 1.420437789180920E+06,
2459727.500000000, A.D. 2022-May-28 00:00:00.0000, -3.369875974053449E+08, -3.591099893670043E+08, 1.108135496406272E+06,
2459734.500000000, A.D. 2022-Jun-04 00:00:00.0000, -3.289678424329569E+08, -3.644647585048395E+08, 7.953849084504396E+05,
2459741.500000000, A.D. 2022-Jun-11 00:00:00.0000, -3.208132157464734E+08, -3.696700015138932E+08, 4.823102807914317E+05,
2459748.500000000, A.D. 2022-Jun-18 00:00:00.0000, -3.125258448096250E+08, -3.747221806487924E+08, 1.690382620555758E+05,
2459755.500000000, A.D. 2022-Jun-25 00:00:00.0000, -3.041079473516491E+08, -3.796177506062071E+08, -1.443020814778209E+05,
2459762.500000000, A.D. 2022-Jul-02 00:00:00.0000, -2.955618337323952E+08, -3.843531603837659E+08, -4.575792700817287E+05,
2459769.500000000, A.D. 2022-Jul-09 00:00:00.0000, -2.868899088155831E+08, -3.889248552654082E+08, -7.706594648964703E+05,
2459776.500000000, A.D. 2022-Jul-16 00:00:00.0000, -2.780946734018225E+08, -3.933292778562412E+08, -1.083406478850365E+06,
2459783.500000000, A.D. 2022-Jul-23 00:00:00.0000, -2.691787274152173E+08, -3.975628680949472E+08, -1.395681536251456E+06,
2459790.500000000, A.D. 2022-Jul-30 00:00:00.0000, -2.601447747540859E+08, -4.016220656042376E+08, -1.707343062973291E+06,
2459797.500000000, A.D. 2022-Aug-06 00:00:00.0000, -2.509956262019926E+08, -4.055033137390323E+08, -2.018246784474105E+06,
2459804.500000000, A.D. 2022-Aug-13 00:00:00.0000, -2.417342012173028E+08, -4.092030625853481E+08, -2.328245831037104E+06,
2459811.500000000, A.D. 2022-Aug-20 00:00:00.0000, -2.323635301645890E+08, -4.127177714198176E+08, -2.637190747398138E+06,
2459818.500000000, A.D. 2022-Aug-27 00:00:00.0000, -2.228867569125741E+08, -4.160439113627399E+08, -2.944929472454607E+06,
2459825.500000000, A.D. 2022-Sep-03 00:00:00.0000, -2.133071415425555E+08, -4.191779683418421E+08, -3.251307321019262E+06,
2459832.500000000, A.D. 2022-Sep-10 00:00:00.0000, -2.036280630684396E+08, -4.221164463500024E+08, -3.556166974221945E+06,
2459839.500000000, A.D. 2022-Sep-17 00:00:00.0000, -1.938530221298237E+08, -4.248558710061539E+08, -3.859348481760710E+06,
2459846.500000000, A.D. 2022-Sep-24 00:00:00.0000, -1.839856435880917E+08, -4.273927934775873E+08, -4.160689286112815E+06,
2459853.500000000, A.D. 2022-Oct-01 00:00:00.0000, -1.740296787751834E+08, -4.297237947929431E+08, -4.460024293032020E+06,
2459860.500000000, A.D. 2022-Oct-08 00:00:00.0000, -1.639890069765122E+08, -4.318454900304422E+08, -4.757185983598113E+06,
2459867.500000000, A.D. 2022-Oct-15 00:00:00.0000, -1.538676370676233E+08, -4.337545311881588E+08, -5.052004385003865E+06,
2459874.500000000, A.D. 2022-Oct-22 00:00:00.0000, -1.436697114725225E+08, -4.354476104254602E+08, -5.344306838336706E+06,
2459881.500000000, A.D. 2022-Oct-29 00:00:00.0000, -1.333995099310256E+08, -4.369214662749088E+08, -5.633918005277693E+06,
2459888.500000000, A.D. 2022-Nov-05 00:00:00.0000, -1.230614509611011E+08, -4.381728900899721E+08, -5.920660083058506E+06,
2459895.500000000, A.D. 2022-Nov-12 00:00:00.0000, -1.126600929662235E+08, -4.391987314663002E+08, -6.204352944525093E+06,
2459902.500000000, A.D. 2022-Nov-19 00:00:00.0000, -1.022001356912506E+08, -4.399959035933325E+08, -6.484814215843648E+06,
2459909.500000000, A.D. 2022-Nov-26 00:00:00.0000, -9.168642174714053E+07, -4.405613889340740E+08, -6.761859348892301E+06,
2459916.500000000, A.D. 2022-Dec-03 00:00:00.0000, -8.112393801877293E+07, -4.408922452435474E+08, -7.035301705072492E+06,
2459923.500000000, A.D. 2022-Dec-10 00:00:00.0000, -7.051781688831255E+07, -4.409856119060943E+08, -7.304952653853893E+06,
2459930.500000000, A.D. 2022-Dec-17 00:00:00.0000, -5.987333722612901E+07, -4.408387166164855E+08, -7.570621691077083E+06,
2459937.500000000, A.D. 2022-Dec-24 00:00:00.0000, -4.919592501683560E+07, -4.404488824713138E+08, -7.832116593076140E+06,
2459944.500000000, A.D. 2022-Dec-31 00:00:00.0000, -3.849115324044257E+07, -4.398135353628038E+08, -8.089243631154388E+06,
2459951.500000000, A.D. 2023-Jan-07 00:00:00.0000, -2.776474086371408E+07, -4.389302107097737E+08, -8.341807779410452E+06,
2459958.500000000, A.D. 2023-Jan-14 00:00:00.0000, -1.702255288585522E+07, -4.377965590224814E+08, -8.589612695211202E+06,
2459965.500000000, A.D. 2023-Jan-21 00:00:00.0000, -6.270602058616456E+06, -4.364103534641342E+08, -8.832460672820956E+06,
2459972.500000000, A.D. 2023-Jan-28 00:00:00.0000, 4.484951413453129E+06, -4.347694995936724E+08, -9.070152923026085E+06,
2459979.500000000, A.D. 2023-Feb-04 00:00:00.0000, 1.523780201042626E+07, -4.328720442504100E+08, -9.302489912507802E+06,
2459986.500000000, A.D. 2023-Feb-11 00:00:00.0000, 2.598150110311985E+07, -4.307161837597124E+08, -9.529271614316463E+06,
2459993.500000000, A.D. 2023-Feb-18 00:00:00.0000, 3.670945919113567E+07, -4.283002722654805E+08, -9.750297731069684E+06,
2460000.500000000, A.D. 2023-Feb-25 00:00:00.0000, 4.741494846207085E+07, -4.256228303310536E+08, -9.965367928297162E+06,
2460007.500000000, A.D. 2023-Mar-04 00:00:00.0000, 5.809110580035887E+07, -4.226825537665427E+08, -1.017428208581746E+07,
2460014.500000000, A.D. 2023-Mar-11 00:00:00.0000, 6.873093630054767E+07, -4.194783226559412E+08, -1.037684056973961E+07,
2460021.500000000, A.D. 2023-Mar-18 00:00:00.0000, 7.932731735803123E+07, -4.160092106049818E+08, -1.057284453338099E+07,
2460028.500000000, A.D. 2023-Mar-25 00:00:00.0000, 8.987300356547230E+07, -4.122744942264606E+08, -1.076209626937649E+07,
2460035.500000000, A.D. 2023-Apr-01 00:00:00.0000, 1.003606328624959E+08, -4.082736624367005E+08, -1.094439961937028E+07,
2460042.500000000, A.D. 2023-Apr-08 00:00:00.0000, 1.107827333440286E+08, -4.040064243019133E+08, -1.111956028422067E+07,
2460049.500000000, A.D. 2023-Apr-15 00:00:00.0000, 1.211317284087077E+08, -3.994727164998398E+08, -1.128738591021490E+07,
2460056.500000000, A.D. 2023-Apr-22 00:00:00.0000, 1.313999420735057E+08, -3.946727134036981E+08, -1.144768636615750E+07,
2460063.500000000, A.D. 2023-Apr-29 00:00:00.0000, 1.415796072049816E+08, -3.896068374893281E+08, -1.160027427755550E+07,
2460070.500000000, A.D. 2023-May-06 00:00:00.0000, 1.516628749188676E+08, -3.842757682367372E+08, -1.174496551019314E+07,
2460077.500000000, A.D. 2023-May-13 00:00:00.0000, 1.616418241791515E+08, -3.786804503688174E+08, -1.188157958573055E+07,
2460084.500000000, A.D. 2023-May-20 00:00:00.0000, 1.715084718349099E+08, -3.728221018646692E+08, -1.200994009008487E+07,
2460091.500000000, A.D. 2023-May-27 00:00:00.0000, 1.812547832882778E+08, -3.667022217210694E+08, -1.212987509380601E+07,
2460098.500000000, A.D. 2023-Jun-03 00:00:00.0000, 1.908726838462620E+08, -3.603225973780822E+08, -1.224121758656989E+07,
2460105.500000000, A.D. 2023-Jun-10 00:00:00.0000, 2.003540707703847E+08, -3.536853117623878E+08, -1.234380592797862E+07,
2460112.500000000, A.D. 2023-Jun-17 00:00:00.0000, 2.096908260989669E+08, -3.467927499467805E+08, -1.243748432651728E+07,
2460119.500000000, A.D. 2023-Jun-24 00:00:00.0000, 2.188748305434562E+08, -3.396476053089430E+08, -1.252210337002243E+07,
2460126.500000000, A.D. 2023-Jul-01 00:00:00.0000, 2.278979786877390E+08, -3.322528843018463E+08, -1.259752056147169E+07,
2460133.500000000, A.D. 2023-Jul-08 00:00:00.0000, 2.367521937849405E+08, -3.246119089551749E+08, -1.266360063742818E+07,
2460140.500000000, A.D. 2023-Jul-15 00:00:00.0000, 2.454294408356809E+08, -3.167283198780585E+08, -1.272021578125674E+07,
$$EOE